{
    "links": {
        "self": "http://www.neowsapp.com/rest/v1/neo/3653214?api_key=iIulBulltgU6a56xZRHN4H3l9WmuAYTsLGpBGhQ2"
    },
    "id": "3653214",
    "neo_reference_id": "3653214",
    "name": "(2013 UR4)",
    "designation": "2013 UR4",
    "nasa_jpl_url": "http://ssd.jpl.nasa.gov/sbdb.cgi?sstr=3653214",
    "absolute_magnitude_h": 24.8,
    "estimated_diameter": {
        "kilometers": {
            "estimated_diameter_min": 0.0291443905,
            "estimated_diameter_max": 0.0651688382
        },
        "meters": {
            "estimated_diameter_min": 29.1443904535,
            "estimated_diameter_max": 65.1688382168
        },
        "miles": {
            "estimated_diameter_min": 0.018109479,
            "estimated_diameter_max": 0.0404940262
        },
        "feet": {
            "estimated_diameter_min": 95.6180819754,
            "estimated_diameter_max": 213.8085311752
        }
    },
    "is_potentially_hazardous_asteroid": false,
    "close_approach_data": [
        {
            "close_approach_date": "2013-10-28",
            "close_approach_date_full": "2013-Oct-28 21:00",
            "epoch_date_close_approach": 1382994000000,
            "relative_velocity": {
                "kilometers_per_second": "5.7412402103",
                "kilometers_per_hour": "20668.4647569358",
                "miles_per_hour": "12842.5802263305"
            },
            "miss_distance": {
                "astronomical": "0.1203796087",
                "lunar": "46.8276677843",
                "kilometers": "18008533.052953469",
                "miles": "11189983.5526731122"
            },
            "orbiting_body": "Earth"
        }
    ],
    "orbital_data": {
        "orbit_id": "7",
        "orbit_determination_date": "2017-04-06 08:44:01",
        "first_observation_date": "2013-10-25",
        "last_observation_date": "2013-11-06",
        "data_arc_in_days": 12,
        "observations_used": 40,
        "orbit_uncertainty": "8",
        "minimum_orbit_intersection": ".119903",
        "jupiter_tisserand_invariant": "3.390",
        "epoch_osculation": "2456592.5",
        "eccentricity": ".5178724807048775",
        "semi_major_axis": "2.305329634673629",
        "inclination": "5.674752716256704",
        "ascending_node_longitude": "26.00522213426849",
        "orbital_period": "1278.491887237483",
        "perihelion_distance": "1.111462857922728",
        "perihelion_argument": "12.88076850167026",
        "aphelion_distance": "3.49919641142453",
        "perihelion_time": "2456598.157508450623",
        "mean_anomaly": "358.4069487944698",
        "mean_motion": ".2815817633210598",
        "equinox": "J2000",
        "orbit_class": {
            "orbit_class_type": "AMO",
            "orbit_class_description": "Near-Earth asteroid orbits similar to that of 1221 Amor",
            "orbit_class_range": "1.017 AU < q (perihelion) < 1.3 AU"
        }
    },
    "is_sentry_object": false
}